1 46806U 20075B   23034.48736503  .00000093  00000-0  00000+0 0  9997
2 46806  64.6144 234.9824 0065079 130.3801 230.2401  2.08518214 17322
1 46806U 20075B   23034.48736508  .00000093  00000-0  00000-0 0  9993
2 46806  64.6144 234.9824 0065083 130.3950 230.2252  2.08518205 17326
1 46806U 20075B   23037.36479910  .00000076  00000-0  00000-0 0  9995
2 46806  64.6137 234.8899 0065072 130.4145 230.1930  2.08518186 17380
1 46806U 20075B   23037.36479910  .00000076  00000-0  00000+0 0  9994
2 46806  64.6137 234.8899 0065072 130.4145 230.1930  2.08518186 17380
1 46806U 20075B   23038.32394324  .00000076  00000-0  00000-0 0  9997
2 46806  64.6137 234.8591 0065073 130.4174 230.1853  2.08518168 17409
1 46806U 20075B   23040.24223436  .00000085  00000-0  00000-0 0  9996
2 46806  64.6136 234.7975 0065066 130.4073 230.1880  2.08518136 17442
1 46806U 20075B   23040.24223436  .00000085  00000-0  00000+0 0  9995
2 46806  64.6136 234.7975 0065066 130.4073 230.1880  2.08518136 17442
1 46806U 20075B   23042.16053211  .00000101  00000-0  00000-0 0  9990
2 46806  64.6135 234.7358 0065057 130.4133 230.1797  2.08518108 17483
1 46806U 20075B   23043.11968370  .00000110  00000-0  00000-0 0  9997
2 46806  64.6134 234.7049 0065044 130.4098 230.1840  2.08518097 17504
1 46806U 20075B   23043.11968371  .00000110  00000-0  00000+0 0  9997
2 46806  64.6134 234.7049 0065047 130.4116 230.1822  2.08518102 17505
1 46806U 20075B   23045.99714087  .00000122  00000-0  00000-0 0  9992
2 46806  64.6132 234.6124 0065013 130.3999 230.1981  2.08518069 17561
1 46806U 20075B   23045.99714087  .00000122  00000-0  00000+0 0  9991
2 46806  64.6132 234.6124 0065013 130.3999 230.1981  2.08518069 17561
1 46806U 20075B   23048.87458104  .00000093  00000-0  00000-0 0  9994
2 46806  64.6130 234.5199 0065001 130.3975 230.1918  2.08518051 17629
1 46806U 20075B   23048.87458104  .00000093  00000-0  00000+0 0  9993
2 46806  64.6130 234.5199 0065001 130.3975 230.1918  2.08518051 17629
1 46806U 20075B   23051.75200286  .00000053  00000-0  00000-0 0  9997
2 46806  64.6128 234.4273 0065233 130.8445 229.7225  2.08518053 17685
1 46806U 20075B   23051.75200518  .00000053  00000-0  00000+0 0  9994
2 46806  64.6127 234.4273 0064978 130.3904 230.1782  2.08518056 17681
1 46806U 20075B   23054.62944052  .00000055  00000-0  00000-0 0  9994
2 46806  64.6125 234.3348 0065126 130.7887 229.7678  2.08518096 17740
1 46806U 20075B   23054.62944052  .00000055  00000-0  00000+0 0  9993
2 46806  64.6125 234.3348 0065126 130.7887 229.7678  2.08518096 17740
1 46806U 20075B   23055.10901770  .00000059  00000-0  00000-0 0  9992
2 46806  64.6123 234.3194 0065005 130.5149 230.0430  2.08518108 17758
1 46806U 20075B   23056.06816999  .00000068  00000-0  00000-0 0  9996
2 46806  64.6117 234.2886 0064986 130.4864 230.0729  2.08518124 17779
1 46806U 20075B   23058.94562946  .00000084  00000-0  00000-0 0  9993
2 46806  64.6116 234.1961 0064963 130.4910 230.0743  2.08518169 17830
1 46806U 20075B   23058.94562946  .00000084  00000-0  00000+0 0  9992
2 46806  64.6116 234.1961 0064963 130.4910 230.0743  2.08518169 17830
1 46806U 20075B   23059.90478117  .00000082  00000-0  00000-0 0  9994
2 46806  64.6116 234.1651 0064987 130.4901 230.0760  2.08518175 17850
1 46806U 20075B   23061.82307840  .00000067  00000-0  00000-0 0  9995
2 46806  64.6111 234.1035 0064980 130.4942 230.0692  2.08518173 17895
1 46806U 20075B   23061.82307847  .00000067  00000-0  00000-0 0  9992
2 46806  64.6110 234.1036 0064971 130.4893 230.0741  2.08518172 17894
1 46806U 20075B   23061.82307847  .00000067  00000-0  00000+0 0  9991
2 46806  64.6110 234.1036 0064971 130.4893 230.0741  2.08518172 17894
1 46806U 20075B   23063.26179720  .00000054  00000-0  00000-0 0  9995
2 46806  64.6110 234.0574 0064957 130.5040 230.0542  2.08518161 17920
1 46806U 20075B   23069.01667775  .00000063  00000-0  00000-0 0  9996
2 46806  64.6111 233.8725 0064859 130.4524 230.0886  2.08518089 18047
1 46806U 20075B   23069.01667775  .00000063  00000-0  00000+0 0  9995
2 46806  64.6111 233.8725 0064859 130.4524 230.0886  2.08518089 18047
1 46806U 20075B   23069.97583019  .00000072  00000-0  00000-0 0  9999
2 46806  64.6110 233.8418 0064851 130.4450 230.0974  2.08518076 18061
1 46806U 20075B   23071.41456085  .00000082  00000-0  00000-0 0  9994
2 46806  64.6108 233.7956 0064838 130.4640 230.0819  2.08518055 18098
1 46806U 20075B   23071.41456085  .00000082  00000-0  00000+0 0  9993
2 46806  64.6108 233.7956 0064838 130.4640 230.0819  2.08518055 18098
1 46806U 20075B   23073.33286834  .00000085  00000-0  00000-0 0  9993
2 46806  64.6105 233.7340 0064824 130.4668 230.0837  2.08518032 18137
1 46806U 20075B   23073.81244416  .00000083  00000-0  00000+0 0  9993
2 46806  64.6104 233.7187 0064823 130.4679 230.0830  2.08518025 18142
1 46806U 20075B   23074.29201942  .00000079  00000-0  00000-0 0  9999
2 46806  64.6104 233.7032 0064819 130.4643 230.0864  2.08518022 18152
1 46806U 20075B   23075.25116776  .00000068  00000-0  00000-0 0  9994
2 46806  64.6103 233.6724 0064814 130.4664 230.0826  2.08518016 18179
1 46806U 20075B   23077.16945654  .00000038  00000-0  00000-0 0  9998
2 46806  64.6100 233.6109 0064795 130.4753 230.0643  2.08518014 18210
1 46806U 20075B   23077.16945654  .00000038  00000-0  00000+0 0  9997
2 46806  64.6100 233.6109 0064795 130.4753 230.0643  2.08518014 18210
1 46806U 20075B   23078.60817067  .00000017  00000-0  00000-0 0  9991
2 46806  64.6098 233.5647 0064783 130.4834 230.0472  2.08518019 18247
1 46806U 20075B   23080.04688761  .00000007  00000-0  00000-0 0  9998
2 46806  64.6096 233.5185 0064767 130.4844 230.0396  2.08518038 18274
1 46806U 20075B   23080.04688761  .00000007  00000-0  00000+0 0  9997
2 46806  64.6096 233.5185 0064767 130.4844 230.0396  2.08518038 18274
1 46806U 20075B   23081.48561058  .00000010  00000-0  00000-0 0  9990
2 46806  64.6096 233.4723 0064750 130.4958 230.0259  2.08518059 18304
1 46806U 20075B   23082.44476284  .00000017  00000-0  00000-0 0  9990
2 46806  64.6095 233.4416 0064740 130.5013 230.0216  2.08518075 18327
1 46806U 20075B   23082.44476284  .00000017  00000-0  00000+0 0  9999
2 46806  64.6095 233.4416 0064740 130.5013 230.0216  2.08518075 18327
1 46806U 20075B   23083.40391688  .00000026  00000-0  00000-0 0  9991
2 46806  64.6094 233.4107 0064726 130.5176 230.0080  2.08518097 18342
1 46806U 20075B   23084.84265084  .00000037  00000-0  00000-0 0  9992
2 46806  64.6095 233.3646 0064726 130.4882 230.0434  2.08518123 18379
1 46806U 20075B   23084.84265084  .00000037  00000-0  00000+0 0  9991
2 46806  64.6095 233.3646 0064726 130.4882 230.0434  2.08518123 18379
1 46806U 20075B   23085.32222865  .00000039  00000-0  00000-0 0  9998
2 46806  64.6095 233.3492 0064723 130.4972 230.0362  2.08518131 18385
1 46806U 20075B   23086.28138342  .00000040  00000-0  00000-0 0  9992
2 46806  64.6093 233.3185 0064715 130.5031 230.0334  2.08518142 18404
1 46806U 20075B   23087.24053663  .00000037  00000-0  00000-0 0  9997
2 46806  64.6092 233.2877 0064706 130.5065 230.0321  2.08518149 18422
1 46806U 20075B   23087.24053663  .00000037  00000-0  00000+0 0  9996
2 46806  64.6092 233.2877 0064706 130.5065 230.0321  2.08518149 18422
1 46806U 20075B   23088.19968806  .00000030  00000-0  00000-0 0  9999
2 46806  64.6090 233.2570 0064694 130.5184 230.0208  2.08518154 18440
1 46806U 20075B   23090.11798582  .00000012  00000-0  00000-0 0  9996
2 46806  64.6087 233.1955 0064644 130.5443 229.9924  2.08518147 18483
1 46806U 20075B   23090.11798582  .00000012  00000-0  00000+0 0  9995
2 46806  64.6087 233.1955 0064644 130.5443 229.9924  2.08518147 18483
1 46806U 20075B   23093.47500092  .00000000  00000-0  00000-0 0  9992
2 46806  64.6082 233.0878 0064602 130.5722 229.9562  2.08518136 18559
1 46806U 20075B   23093.47500092  .00000000  00000-0  00000+0 0  9991
2 46806  64.6082 233.0878 0064602 130.5722 229.9562  2.08518136 18559
1 46806U 20075B   23094.91372659  .00000008  00000-0  00000-0 0  9996
2 46806  64.6080 233.0417 0064625 130.5331 229.9948  2.08518109 18588
1 46806U 20075B   23098.27076571  .00000037  00000-0  00000-0 0  9995
2 46806  64.6074 232.9342 0064571 130.5947 229.9422  2.08518058 18657
1 46806U 20075B   23098.27076571  .00000037  00000-0  00000+0 0  9994
2 46806  64.6074 232.9342 0064571 130.5947 229.9422  2.08518058 18657
1 46806U 20075B   23099.70950064  .00000045  00000-0  00000-0 0  9991
2 46806  64.6071 232.8881 0064550 130.6138 229.9297  2.08518036 18680
1 46806U 20075B   23099.70950075  .00000045  00000-0  00000-0 0  9993
2 46806  64.6072 232.8881 0064559 130.5991 229.9446  2.08518044 18681
1 46806U 20075B   23100.18907856  .00000045  00000-0  00000-0 0  9997
2 46806  64.6071 232.8727 0064547 130.6158 229.9297  2.08518030 18692
1 46806U 20075B   23102.58695981  .00000029  00000-0  00000-0 0  9998
2 46806  64.6067 232.7959 0064542 130.6035 229.9458  2.08518016 18741
1 46806U 20075B   23102.58695981  .00000029  00000-0  00000+0 0  9997
2 46806  64.6067 232.7959 0064542 130.6035 229.9458  2.08518016 18741
1 46806U 20075B   23102.58695988  .00000029  00000-0  00000-0 0  9995
2 46806  64.6067 232.7959 0064515 130.6424 229.9064  2.08518008 18747
1 46806U 20075B   23104.50525331  .00000000  00000-0  00000-0 0  9992
2 46806  64.6063 232.7344 0064528 130.6091 229.9345  2.08518015 18789
1 46806U 20075B   23105.46439817 -.00000013  00000-0  00000-0 0  9996
2 46806  64.6062 232.7037 0064513 130.6184 229.9207  2.08518019 18808
1 46806U 20075B   23105.46439817 -.00000013  00000-0  00000+0 0  9995
2 46806  64.6062 232.7037 0064513 130.6184 229.9207  2.08518019 18808
1 46806U 20075B   23106.42354355 -.00000023  00000-0  00000-0 0  9997
2 46806  64.6060 232.6729 0064501 130.6274 229.9079  2.08518030 18822
1 46806U 20075B   23108.34184123 -.00000026  00000-0  00000-0 0  9997
2 46806  64.6057 232.6115 0064471 130.6527 229.8801  2.08518063 18866
1 46806U 20075B   23108.34184129 -.00000026  00000-0  00000-0 0  9993
2 46806  64.6057 232.6115 0064476 130.6452 229.8876  2.08518056 18862
